ONEWEB-0512             
1 54130U 22138T   25029.50573635  .00000045  00000+0  80256-4 0  9994
2 54130  87.9146  45.1148 0001608 106.0505 254.0805 13.19724274110371
ONEWEB-0513             
1 54131U 22138U   25029.47651307  .00000037  00000+0  59684-4 0  9996
2 54131  87.9144  45.1095 0001366 104.0600 256.0684 13.19723244110256
ONEWEB-0514             
1 54132U 22138V   25029.52152511  .00000102  00000+0  22169-3 0  9996
2 54132  87.9139  45.0877 0001804  90.5662 269.5677 13.19728406110393
ONEWEB-0515             
1 54133U 22138W   25029.48770682  .00000052  00000+0  95606-4 0  9998
2 54133  87.9265  14.6268 0002801  79.0792 281.0656 13.20774542112813
ONEWEB-0516             
1 54134U 22138X   25029.79953529 -.00000026  00000+0 -96214-4 0  9995
2 54134  87.9148  45.0585 0001916  96.8382 263.2969 13.19724623111307
ONEWEB-0517             
1 54135U 22138Y   25029.47572488  .00000058  00000+0  11153-3 0  9993
2 54135  87.9141  45.0923 0001475  85.3137 274.8164 13.19722737110395
ONEWEB-0518             
1 54136U 22138Z   25029.79794948  .00000028  00000+0  36454-4 0  9995
2 54136  87.9146  45.0554 0001712  91.8224 268.3104 13.19724529111309
ONEWEB-0519             
1 54137U 22138AA  25029.51995180  .00000100  00000+0  21829-3 0  9997
2 54137  87.9139  45.0772 0001570  88.1825 271.9487 13.19724107110408
